TDRS 11                 
1 39070U 13004A   26066.11755552  .00000079  00000+0  00000+0 0  9992
2 39070   3.3713  29.4047 0004025 351.6565  11.7874  1.00277526 45676
TDRS 12                 
1 39504U 14004A   26066.16869632 -.00000271  00000+0  00000+0 0  9990
2 39504   3.8786  17.2915 0003848 268.3377 259.0587  1.00269118 43257
GPM-CORE                
1 39574U 14009C   26066.18523806  .00008799  00000+0  19248-3 0  9994
2 39574  64.9726 289.8770 0012412 265.3189  94.6534 15.44662642682051
MMS 1                   
1 40482U 15011A   26066.25001156 -.00001952  00000+0  00000+0 0  9992
2 40482  70.7972 350.1855 8421363 165.2641 341.0327  0.28179295  1342
MMS 2                   
1 40483U 15011B   26066.25001156 -.00001953  00000+0  00000+0 0  9994
2 40483  70.7975 350.1872 8422146 165.2732 341.0178  0.28176915  1346
MMS 3                   
1 40484U 15011C   26066.25001156 -.00001953  00000+0  00000+0 0  9995
2 40484  70.7999 350.1919 8421426 165.2673 341.0260  0.28177041  1342
MMS 4                   
1 40485U 15011D   26066.25001156 -.00001952  00000+0  00000+0 0  9995
2 40485  70.7979 350.1874 8420881 165.2716 341.0104  0.28179274  1340
TDRS 13                 
1 42915U 17047A   26066.12817694 -.00000101  00000+0  00000+0 0  9999
2 42915   3.4300   0.1307 0010536  98.6511 100.7266  1.00272350 31320
NOAA 20 (JPSS-1)        
1 43013U 17073A   26066.07947234  .00000126  00000+0  80523-4 0  9995
2 43013  98.7690   6.4926 0001112 140.9934 219.1323 14.19535238429988
